SL-16 R/B               
1 22566U 93016B   26001.42430117  .00000020  00000+0  34717-4 0  9998
2 22566  71.0088 356.4589 0008046  57.8548 302.3355 14.15295824692652
COSMOS 2242             
1 22626U 93024A   26001.43228465  .00003700  00000+0  32517-3 0  9999
2 22626  82.5193 331.0207 0016636 165.2052 194.9661 14.96204018770338
SL-16 R/B               
1 22803U 93059B   26001.56564449  .00000012  00000+0  29928-4 0  9999
2 22803  70.9900 152.6787 0019076 307.6295  52.3097 14.17219526670022
ARIANE 40 R/B           
1 22830U 93061H   26001.59054331  .00000594  00000+0  23337-3 0  9991
2 22830  98.5048  71.7569 0011729 120.7974 239.4367 14.32817358684493
COSMOS 2278             
1 23087U 94023A   26001.26821512  .00000421  00000+0  24480-3 0  9991
2 23087  71.0541 316.1531 0007498 144.1151 216.0476 14.14353019635275
SL-16 R/B               
1 23088U 94023B   26001.62808411  .00000129  00000+0  91263-4 0  9994
2 23088  70.9975 211.7206 0002441 356.3313   3.7791 14.14998873636606
SL-16 R/B               
1 23343U 94074B   26001.63859973  .00001027  00000+0  14451-3 0  9995
2 23343  97.7184  35.1503 0008019  81.8659  30.9043 14.79316918677339
SL-16 R/B               
1 23405U 94077B   26001.56518697 -.00000175  00000+0 -65092-4 0  9997
2 23405  70.9827 133.7068 0005042 268.0430  92.0115 14.15550265606735
ARIANE 40+ R/B          
1 23561U 95021B   26001.63408519  .00000683  00000+0  23200-3 0  9995
2 23561  98.4625  73.9806 0006422 352.1601 176.7751 14.39713871609595
SL-16 R/B               
1 23705U 95058B   26001.56887843  .00000274  00000+0  16429-3 0  9999
2 23705  71.0222 321.1727 0014300 228.6349 131.3545 14.15483179558359
SL-16 R/B               
1 24298U 96051B   26001.31881129  .00000040  00000+0  48398-4 0  9997
2 24298  70.7598 317.8403 0019423 237.3203 122.6043 14.12398820512136
ORBVIEW 2 (SEASTAR)     
1 24883U 97037A   26001.43283726  .00000640  00000+0  23912-3 0  9994
2 24883  98.8470 164.0047 0001302 248.1728 111.9318 14.35434569498822
