CCSDS_OMM_VERS = 2.0
CREATION_DATE  = 
ORIGINATOR     = 

OBJECT_NAME    = SL-16 R/B
OBJECT_ID      = 1993-016B
CENTER_NAME    = EARTH
REF_FRAME      = TEME
TIME_SYSTEM    = UTC
MEAN_ELEMENT_THEORY = SGP/SGP4

EPOCH          = 2026-01-01T10:10:59.621088
MEAN_MOTION    = 14.15295824
ECCENTRICITY   = .00080461
INCLINATION    = 71.0088
RA_OF_ASC_NODE = 356.4589
ARG_OF_PERICENTER = 57.8548
MEAN_ANOMALY   = 302.3355

EPHEMERIS_TYPE = 0
CLASSIFICATION_TYPE = U
NORAD_CAT_ID   = 22566
ELEMENT_SET_NO = 999
REV_AT_EPOCH   = 69265
BSTAR          = .34717183E-4
MEAN_MOTION_DOT = .2E-6
MEAN_MOTION_DDOT = 0

CCSDS_OMM_VERS = 2.0
CREATION_DATE  = 
ORIGINATOR     = 

OBJECT_NAME    = COSMOS 2242
OBJECT_ID      = 1993-024A
CENTER_NAME    = EARTH
REF_FRAME      = TEME
TIME_SYSTEM    = UTC
MEAN_ELEMENT_THEORY = SGP/SGP4

EPOCH          = 2026-01-01T10:22:29.393760
MEAN_MOTION    = 14.96204018
ECCENTRICITY   = .00166362
INCLINATION    = 82.5193
RA_OF_ASC_NODE = 331.0207
ARG_OF_PERICENTER = 165.2052
MEAN_ANOMALY   = 194.9661

EPHEMERIS_TYPE = 0
CLASSIFICATION_TYPE = U
NORAD_CAT_ID   = 22626
ELEMENT_SET_NO = 999
REV_AT_EPOCH   = 77033
BSTAR          = .32517113E-3
MEAN_MOTION_DOT = .37E-4
MEAN_MOTION_DDOT = 0

CCSDS_OMM_VERS = 2.0
CREATION_DATE  = 
ORIGINATOR     = 

OBJECT_NAME    = SL-16 R/B
OBJECT_ID      = 1993-059B
CENTER_NAME    = EARTH
REF_FRAME      = TEME
TIME_SYSTEM    = UTC
MEAN_ELEMENT_THEORY = SGP/SGP4

EPOCH          = 2026-01-01T13:34:31.683936
MEAN_MOTION    = 14.17219526
ECCENTRICITY   = .00190765
INCLINATION    = 70.9900
RA_OF_ASC_NODE = 152.6787
ARG_OF_PERICENTER = 307.6295
MEAN_ANOMALY   = 52.3097

EPHEMERIS_TYPE = 0
CLASSIFICATION_TYPE = U
NORAD_CAT_ID   = 22803
ELEMENT_SET_NO = 999
REV_AT_EPOCH   = 67002
BSTAR          = .29928442E-4
MEAN_MOTION_DOT = .12E-6
MEAN_MOTION_DDOT = 0

CCSDS_OMM_VERS = 2.0
CREATION_DATE  = 
ORIGINATOR     = 

OBJECT_NAME    = ARIANE 40 R/B
OBJECT_ID      = 1993-061H
CENTER_NAME    = EARTH
REF_FRAME      = TEME
TIME_SYSTEM    = UTC
MEAN_ELEMENT_THEORY = SGP/SGP4

EPOCH          = 2026-01-01T14:10:22.941984
MEAN_MOTION    = 14.32817358
ECCENTRICITY   = .00117297
INCLINATION    = 98.5048
RA_OF_ASC_NODE = 71.7569
ARG_OF_PERICENTER = 120.7974
MEAN_ANOMALY   = 239.4367

EPHEMERIS_TYPE = 0
CLASSIFICATION_TYPE = U
NORAD_CAT_ID   = 22830
ELEMENT_SET_NO = 999
REV_AT_EPOCH   = 68449
BSTAR          = .23336901E-3
MEAN_MOTION_DOT = .594E-5
MEAN_MOTION_DDOT = 0

CCSDS_OMM_VERS = 2.0
CREATION_DATE  = 
ORIGINATOR     = 

OBJECT_NAME    = COSMOS 2278
OBJECT_ID      = 1994-023A
CENTER_NAME    = EARTH
REF_FRAME      = TEME
TIME_SYSTEM    = UTC
MEAN_ELEMENT_THEORY = SGP/SGP4

EPOCH          = 2026-01-01T06:26:13.786368
MEAN_MOTION    = 14.14353019
ECCENTRICITY   = .0007498
INCLINATION    = 71.0541
RA_OF_ASC_NODE = 316.1531
ARG_OF_PERICENTER = 144.1151
MEAN_ANOMALY   = 216.0476

EPHEMERIS_TYPE = 0
CLASSIFICATION_TYPE = U
NORAD_CAT_ID   = 23087
ELEMENT_SET_NO = 999
REV_AT_EPOCH   = 63527
BSTAR          = .24479921E-3
MEAN_MOTION_DOT = .421E-5
MEAN_MOTION_DDOT = 0

CCSDS_OMM_VERS = 2.0
CREATION_DATE  = 
ORIGINATOR     = 

OBJECT_NAME    = SL-16 R/B
OBJECT_ID      = 1994-023B
CENTER_NAME    = EARTH
REF_FRAME      = TEME
TIME_SYSTEM    = UTC
MEAN_ELEMENT_THEORY = SGP/SGP4

EPOCH          = 2026-01-01T15:04:26.467104
MEAN_MOTION    = 14.14998873
ECCENTRICITY   = .0002441
INCLINATION    = 70.9975
RA_OF_ASC_NODE = 211.7206
ARG_OF_PERICENTER = 356.3313
MEAN_ANOMALY   = 3.7791

EPHEMERIS_TYPE = 0
CLASSIFICATION_TYPE = U
NORAD_CAT_ID   = 23088
ELEMENT_SET_NO = 999
REV_AT_EPOCH   = 63660
BSTAR          = .91263093E-4
MEAN_MOTION_DOT = .129E-5
MEAN_MOTION_DDOT = 0

CCSDS_OMM_VERS = 2.0
CREATION_DATE  = 
ORIGINATOR     = 

OBJECT_NAME    = SL-16 R/B
OBJECT_ID      = 1994-074B
CENTER_NAME    = EARTH
REF_FRAME      = TEME
TIME_SYSTEM    = UTC
MEAN_ELEMENT_THEORY = SGP/SGP4

EPOCH          = 2026-01-01T15:19:35.016672
MEAN_MOTION    = 14.79316918
ECCENTRICITY   = .00080192
INCLINATION    = 97.7184
RA_OF_ASC_NODE = 35.1503
ARG_OF_PERICENTER = 81.8659
MEAN_ANOMALY   = 30.9043

EPHEMERIS_TYPE = 0
CLASSIFICATION_TYPE = U
NORAD_CAT_ID   = 23343
ELEMENT_SET_NO = 999
REV_AT_EPOCH   = 67733
BSTAR          = .14450897E-3
MEAN_MOTION_DOT = .1027E-4
MEAN_MOTION_DDOT = 0

CCSDS_OMM_VERS = 2.0
CREATION_DATE  = 
ORIGINATOR     = 

OBJECT_NAME    = SL-16 R/B
OBJECT_ID      = 1994-077B
CENTER_NAME    = EARTH
REF_FRAME      = TEME
TIME_SYSTEM    = UTC
MEAN_ELEMENT_THEORY = SGP/SGP4

EPOCH          = 2026-01-01T13:33:52.154208
MEAN_MOTION    = 14.15550265
ECCENTRICITY   = .00050426
INCLINATION    = 70.9827
RA_OF_ASC_NODE = 133.7068
ARG_OF_PERICENTER = 268.0430
MEAN_ANOMALY   = 92.0115

EPHEMERIS_TYPE = 0
CLASSIFICATION_TYPE = U
NORAD_CAT_ID   = 23405
ELEMENT_SET_NO = 999
REV_AT_EPOCH   = 60673
BSTAR          = -.65091547E-4
MEAN_MOTION_DOT = -.175E-5
MEAN_MOTION_DDOT = 0

CCSDS_OMM_VERS = 2.0
CREATION_DATE  = 
ORIGINATOR     = 

OBJECT_NAME    = ARIANE 40+ R/B
OBJECT_ID      = 1995-021B
CENTER_NAME    = EARTH
REF_FRAME      = TEME
TIME_SYSTEM    = UTC
MEAN_ELEMENT_THEORY = SGP/SGP4

EPOCH          = 2026-01-01T15:13:04.960416
MEAN_MOTION    = 14.39713871
ECCENTRICITY   = .00064227
INCLINATION    = 98.4625
RA_OF_ASC_NODE = 73.9806
ARG_OF_PERICENTER = 352.1601
MEAN_ANOMALY   = 176.7751

EPHEMERIS_TYPE = 0
CLASSIFICATION_TYPE = U
NORAD_CAT_ID   = 23561
ELEMENT_SET_NO = 999
REV_AT_EPOCH   = 60959
BSTAR          = .23199851E-3
MEAN_MOTION_DOT = .683E-5
MEAN_MOTION_DDOT = 0

CCSDS_OMM_VERS = 2.0
CREATION_DATE  = 
ORIGINATOR     = 

OBJECT_NAME    = SL-16 R/B
OBJECT_ID      = 1995-058B
CENTER_NAME    = EARTH
REF_FRAME      = TEME
TIME_SYSTEM    = UTC
MEAN_ELEMENT_THEORY = SGP/SGP4

EPOCH          = 2026-01-01T13:39:11.096352
MEAN_MOTION    = 14.15483179
ECCENTRICITY   = .00143007
INCLINATION    = 71.0222
RA_OF_ASC_NODE = 321.1727
ARG_OF_PERICENTER = 228.6349
MEAN_ANOMALY   = 131.3545

EPHEMERIS_TYPE = 0
CLASSIFICATION_TYPE = U
NORAD_CAT_ID   = 23705
ELEMENT_SET_NO = 999
REV_AT_EPOCH   = 55835
BSTAR          = .16429389E-3
MEAN_MOTION_DOT = .274E-5
MEAN_MOTION_DDOT = 0

CCSDS_OMM_VERS = 2.0
CREATION_DATE  = 
ORIGINATOR     = 

OBJECT_NAME    = SL-16 R/B
OBJECT_ID      = 1996-051B
CENTER_NAME    = EARTH
REF_FRAME      = TEME
TIME_SYSTEM    = UTC
MEAN_ELEMENT_THEORY = SGP/SGP4

EPOCH          = 2026-01-01T07:39:05.295456
MEAN_MOTION    = 14.12398820
ECCENTRICITY   = .00194233
INCLINATION    = 70.7598
RA_OF_ASC_NODE = 317.8403
ARG_OF_PERICENTER = 237.3203
MEAN_ANOMALY   = 122.6043

EPHEMERIS_TYPE = 0
CLASSIFICATION_TYPE = U
NORAD_CAT_ID   = 24298
ELEMENT_SET_NO = 999
REV_AT_EPOCH   = 51213
BSTAR          = .48398486E-4
MEAN_MOTION_DOT = .4E-6
MEAN_MOTION_DDOT = 0

CCSDS_OMM_VERS = 2.0
CREATION_DATE  = 
ORIGINATOR     = 

OBJECT_NAME    = ORBVIEW 2 (SEASTAR)
OBJECT_ID      = 1997-037A
CENTER_NAME    = EARTH
REF_FRAME      = TEME
TIME_SYSTEM    = UTC
MEAN_ELEMENT_THEORY = SGP/SGP4

EPOCH          = 2026-01-01T10:23:17.139264
MEAN_MOTION    = 14.35434569
ECCENTRICITY   = .0001302
INCLINATION    = 98.8470
RA_OF_ASC_NODE = 164.0047
ARG_OF_PERICENTER = 248.1728
MEAN_ANOMALY   = 111.9318

EPHEMERIS_TYPE = 0
CLASSIFICATION_TYPE = U
NORAD_CAT_ID   = 24883
ELEMENT_SET_NO = 999
REV_AT_EPOCH   = 49882
BSTAR          = .23911818E-3
MEAN_MOTION_DOT = .64E-5
MEAN_MOTION_DDOT = 0

